CSS (TIANHE)            
1 48274U 21035A   23262.43001479  .00044628  00000+0  48599-3 0  9990
2 48274  41.4738 302.5726 0008097  54.8997 305.2601 15.62577061136563
